FENGYUN 1C DEB
1 30067U 99025PU  10044.11175645  .00000071  00000-0  37483-4 0  8985
2 30067 098.8724 083.9738 0172248 208.6252 150.5413 14.33988659161466
FENGYUN 1C DEB
1 30068U 99025PV  10043.71541779 -.00000010  00000-0  15918-4 0  8574
2 30068 099.0332 049.6322 0196822 130.4634 231.3890 14.09155506158613
FENGYUN 1C DEB
1 30069U 99025PW  10044.22068693 -.00000086  00000-0 -26217-4 0  4823
2 30069 099.2134 059.1849 0049093 307.3519 052.3170 14.01735530157849
FENGYUN 1C DEB
1 30070U 99025PX  10044.19155673  .00000077  00000-0  56919-4 0  9674
2 30070 098.2799 275.5647 0429157 225.1111 131.4438 13.80387129155415
FENGYUN 1C DEB
1 30071U 99025PY  10042.91704542 +.00000683 +00000-0 +38005-3 0 05896
2 30071 098.8911 034.8987 0067586 287.2039 072.1771 14.13299403158905
FENGYUN 1C DEB
1 30072U 99025PZ  10043.51045696  .00000735  00000-0  53177-3 0  5448
2 30072 099.1507 039.1250 0095336 250.5946 108.4880 13.97696292157233
FENGYUN 1C DEB
1 30073U 99025QA  10043.07561065  .00000183  00000-0  15918-3 0  9951
2 30073 099.4554 084.9127 0062128 343.6026 016.3126 13.98205042157258
FENGYUN 1C DEB
1 30074U 99025QB  10042.93956529 +.00000590 +00000-0 +45405-3 0 05401
2 30074 098.9839 011.4425 0113654 254.5894 104.2678 13.94060250156736
FENGYUN 1C DEB
1 30075U 99025QC  10044.41107435  .00000014  00000-0  44561-4 0  5146
2 30075 098.9759 002.8882 0091817 303.3918 055.8492 13.90885164156667
FENGYUN 1C DEB
1 30076U 99025QD  10044.23853842  .00000106  00000-0  14323-3 0  9437
2 30076 099.6302 054.7824 0181254 113.6405 248.3898 13.73720277154717
FENGYUN 1C DEB
1 30077U 99025QE  10042.84409219  .00000152  00000-0  11839-3 0  4882
2 30077 098.9395 026.9440 0020767 235.3331 124.5867 14.06472594158200
FENGYUN 1C DEB
1 30078U 99025QF  10043.65855449  .00000436  00000-0  32341-3 0  5172
2 30078 099.0788 033.6519 0053057 269.4377 090.0728 13.99932995157509
FENGYUN 1C DEB
1 30079U 99025QG  10042.62873255 +.00000220 +00000-0 +18392-3 0 05276
2 30079 098.9547 010.2880 0082080 317.3304 042.1518 13.96980244157078
FENGYUN 1C DEB
1 30080U 99025QH  10042.58276014  .00000206  00000-0  13656-3 0  8616
2 30080 099.1362 060.3761 0138120 160.2018 200.4548 14.07484024158257
FENGYUN 1C DEB
1 30081U 99025QJ  10043.00067470 -.00000017  00000-0  20683-4 0  5223
2 30081 099.2289 043.5005 0079243 334.9583 024.7758 13.94472728156844
FENGYUN 1C DEB
1 30082U 99025QK  10044.13480386  .00000609  00000-0  11972-3 0  8739
2 30082 098.8288 119.6948 0205172 158.6104 202.3875 14.54269364163717
FENGYUN 1C DEB
1 30083U 99025QL  10044.44399460  .00006604  00000-0  12112-2 0  8575
2 30083 099.0326 133.6576 0180578 185.1288 174.8181 14.56089424163584
FENGYUN 1C DEB
1 30084U 99025QM  10043.82022305  .00004979  00000-0  81121-3 0  8567
2 30084 097.2893 261.9911 0240317 060.9884 301.5185 14.53924351163332
FENGYUN 1C DEB
1 30085U 99025QN  10044.00494702  .00001126  00000-0  24512-3 0  8655
2 30085 098.5718 064.0945 0208814 196.0501 163.4051 14.47434556162933
FENGYUN 1C DEB
1 30086U 99025QP  10042.99388177  .00000114  00000-0  10751-3 0  5350
2 30086 098.9891 020.1543 0052865 261.1999 098.3194 13.99389462157282
FENGYUN 1C DEB
1 30087U 99025QQ  10043.43393401  .00000076  00000-0  37373-4 0  8627
2 30087 098.6101 023.9362 0255102 191.2690 168.2708 14.26577685160542
FENGYUN 1C DEB
1 30088U 99025QR  10043.72828249  .00000170  00000-0  70511-4 0  8405
2 30088 098.8556 063.1781 0225939 001.7294 358.4617 14.26640256160570
FENGYUN 1C DEB
1 30089U 99025QS  10044.51320588  .00000152  00000-0  83648-4 0  8121
2 30089 099.0399 086.6782 0079764 005.8119 354.3986 14.24158015160494
FENGYUN 1C DEB
1 30090U 99025QT  10043.66494995  .00000153  00000-0  91674-4 0  8042
2 30090 099.3421 119.9408 0064050 339.4952 020.3658 14.20946066160003
FENGYUN 1C DEB
1 30091U 99025QU  10044.19579862  .00002905  00000-0  77484-3 0  8217
2 30091 098.5330 026.5606 0246741 303.4794 054.3099 14.32718776160971
FENGYUN 1C DEB
1 30092U 99025QV  10043.47949693  .00000138  00000-0  71646-4 0  8267
2 30092 098.9412 078.5612 0096728 266.4661 092.5465 14.27620439160445
FENGYUN 1C DEB
1 30093U 99025QW  10043.60575605  .00000253  00000-0  11971-3 0  8678
2 30093 098.9524 077.1794 0088477 347.6872 012.2168 14.26386651160379
FENGYUN 1C DEB
1 30094U 99025QX  10044.37933902  .00001197  00000-0  47877-3 0  8315
2 30094 099.0359 089.8978 0080550 336.7311 023.0311 14.28636660160711
FENGYUN 1C DEB
1 30095U 99025QY  10044.15286056  .00000867  00000-0  21506-3 0  7899
2 30095 099.2306 115.9094 0343317 060.1882 303.2919 14.24670104160310
FENGYUN 1C DEB
1 30096U 99025QZ  10043.62108511  .00000079  00000-0  52578-4 0  8609
2 30096 099.1736 107.5609 0085910 303.6547 055.6506 14.25243287160488
FENGYUN 1C DEB
1 30097U 99025RA  10044.08930947  .00001483  00000-0  56019-3 0  8228
2 30097 099.3089 118.3783 0165687 063.3852 298.4238 14.25651373160471
FENGYUN 1C DEB
1 30098U 99025RB  10044.18100150  .00001634  00000-0  62295-3 0  7797
2 30098 099.3144 117.6969 0165183 067.6954 294.1728 14.25102904160257
FENGYUN 1C DEB
1 30099U 99025RC  10044.37838054  .00000085  00000-0  59645-4 0  8235
2 30099 099.0337 076.9114 0066863 030.9678 329.5431 14.20551872160070
FENGYUN 1C DEB
1 30100U 99025RD  10042.90765448  .00018830  00000-0  14056-2 0  8693
2 30100 098.5767 032.8663 0484105 307.3650 048.4364 14.40409244160729
FENGYUN 1C DEB
1 30101U 99025RE  10043.07198918  .00001148  00000-0  54447-3 0  6595
2 30101 099.1856 093.7937 0051571 051.4530 309.1263 14.20985924159610
FENGYUN 1C DEB
1 30102U 99025RF  10043.02546986  .00000087  00000-0  58406-4 0  8574
2 30102 099.0559 072.3119 0151388 083.5659 278.2759 14.17344798159520
FENGYUN 1C DEB
1 30103U 99025RG  10043.08810315  .00000169  00000-0  10625-3 0  8516
2 30103 099.2186 093.7731 0070551 324.6943 034.9589 14.16506650159369
FENGYUN 1C DEB
1 30104U 99025RH  10044.41240209  .00000082  00000-0  62371-4 0  8480
2 30104 098.5569 355.6004 0084041 246.6260 112.6082 14.14646059159160
FENGYUN 1C DEB
1 30105U 99025RJ  10043.71991830  .00000043  00000-0  36778-4 0  7923
2 30105 098.9942 055.8923 0216092 092.8719 269.7207 14.14465368159000
FENGYUN 1C DEB
1 30106U 99025RK  10043.71591895  .00001208  00000-0  59407-3 0  8019
2 30106 099.0488 061.2186 0150756 112.2269 249.4900 14.13729483158937
FENGYUN 1C DEB
1 30107U 99025RL  10042.82716317 -.00000036  00000-0  30489-5 0  6523
2 30107 098.7000 007.2550 0130495 074.2754 287.2604 14.12573176158849
FENGYUN 1C DEB
1 30108U 99025RM  10044.01193254  .00000063  00000-0  49549-4 0  7993
2 30108 099.0179 054.1713 0207065 295.7479 062.2487 14.12202761159104
FENGYUN 1C DEB
1 30109U 99025RN  10044.01724638  .00000297  00000-0  16278-3 0  7519
2 30109 099.1176 068.4098 0181637 129.9201 231.8016 14.11081311158874
FENGYUN 1C DEB
1 30110U 99025RP  10043.93561826  .00000093  00000-0  15019-3 0  8460
2 30110 098.8976 296.9259 0272742 117.1065 245.8180 13.54119935152266
FENGYUN 1C DEB
1 30111U 99025RQ  10042.44443474  .00000805  00000-0  42373-3 0  7917
2 30111 101.6229 013.5215 0154260 233.9921 124.6815 14.12343118158608
FENGYUN 1C DEB
1 30112U 99025RR  10044.07668616  .00000092  00000-0  61826-4 0  8189
2 30112 099.2904 092.3048 0232668 156.3642 204.8358 14.10013017158699
FENGYUN 1C DEB
1 30113U 99025RS  10043.04785049  .00000570  00000-0  34583-3 0  8041
2 30113 099.1309 063.0314 0064458 319.1956 040.4383 14.09573273158400
FENGYUN 1C DEB
1 30114U 99025RT  10042.90908418 -.00000185 +00000-0 -81923-4 0 04886
2 30114 098.9965 036.9746 0083495 151.6179 208.9618 14.06880946157969
FENGYUN 1C DEB
1 30115U 99025RU  10043.47574012  .00000455  00000-0  29925-3 0  4835
2 30115 099.1093 051.0442 0080638 182.0333 178.0401 14.05447705158039
FENGYUN 1C DEB
1 30116U 99025RV  10043.08113186  .00000283  00000-0  20272-3 0  7629
2 30116 099.4161 094.6658 0028099 290.7237 069.0770 14.05541365157971
FENGYUN 1C DEB
1 30117U 99025RW  10043.01820953  .00000032  00000-0  42870-4 0  8048
2 30117 099.1113 049.0104 0169860 176.5778 183.6707 14.03998320157887
FENGYUN 1C DEB
1 30118U 99025RX  10042.93561515 -.00000102 +00000-0 -35194-4 0 04941
2 30118 099.0377 035.3419 0085799 320.8427 038.6544 14.03451937157818
FENGYUN 1C DEB
1 30119U 99025RY  10043.31912412  .00000702  00000-0  43158-3 0  7687
2 30119 097.9532 268.0924 0162315 093.8385 268.1354 14.01836646157490
FENGYUN 1C DEB
1 30120U 99025RZ  10044.36902996  .00000518  00000-0  34976-3 0  7921
2 30120 098.9556 025.5284 0087219 307.2053 052.1256 14.03137537157977
FENGYUN 1C DEB
1 30121U 99025SA  10042.65214476  .00000778  00000-0  53499-3 0  4804
2 30121 102.1868 060.9829 0053670 286.0417 073.4809 14.03550312157488
FENGYUN 1C DEB
1 30122U 99025SB  10044.42102940  .00001708  00000-0  96703-3 0   113
2 30122 095.9159 015.4695 0203361 096.3841 266.0538 14.00795474157468
FENGYUN 1C DEB
1 30123U 99025SC  10044.19540476  .00000410  00000-0  19752-3 0  6369
2 30123 096.9420 139.8467 0296327 355.9933 003.8900 14.01757001157600
FENGYUN 1C DEB
1 30124U 99025SD  10043.60881791  .00000697  00000-0  46013-3 0   229
2 30124 098.8879 006.8723 0167868 331.9299 027.2894 13.98339684157424
FENGYUN 1C DEB
1 30125U 99025SE  10044.30089799 -.00000112  00000-0 -20319-4 0  9524
2 30125 098.6228 336.8424 0437641 148.3247 214.5269 13.97076283157189
FENGYUN 1C DEB
1 30126U 99025SF  10044.38760009  .00018469  00000-0  10274-2 0   679
2 30126 098.8526 177.5058 0208712 334.9748 024.1832 14.97016337167110
FENGYUN 1C DEB
1 30127U 99025SG  10044.13842941  .00001197  00000-0  80379-3 0  9234
2 30127 098.2670 296.6104 0144633 155.4314 205.3843 13.97399981157219
FENGYUN 1C DEB
1 30128U 99025SH  10044.25294340  .00000262  00000-0  17440-3 0  9503
2 30128 097.0165 144.9674 0196366 045.7670 315.9487 13.97601324157296
FENGYUN 1C DEB
1 30129U 99025SJ  10043.13224783  .00000277  00000-0  19455-3 0  9520
2 30129 098.0128 266.8710 0202603 276.8128 081.0083 13.95680509157012
